STARLINK-31191          
1 58800U 24012P   24184.66173245 -.00000661  00000+0 -15423-4 0  9996
2 58800  43.0009  32.7314 0001478 270.5131  89.5551 15.25909884 27102
STARLINK-31170          
1 58801U 24012Q   24184.79038900  .00006768  00000+0  26849-3 0  9994
2 58801  43.0034  31.9816 0002122 298.2927  61.7710 15.25889950 27274
STARLINK-31173          
1 58802U 24012R   24184.87243320  .00000157  00000+0  15854-4 0  9999
2 58802  43.0014   5.1653 0001306 290.5330  69.5381 15.25907674 27589
STARLINK-31141          
1 58803U 24012S   24184.71813373 -.00001187  00000+0 -35567-4 0  9993
2 58803  42.9983  32.3076 0000889 260.9061  99.1689 15.25911563 27268
STARLINK-31188          
1 58804U 24012T   24184.85131054  .00003481  00000+0  14286-3 0  9999
2 58804  43.0051  31.5883 0001714 251.4112 108.6553 15.25913092 27281
STARLINK-31105          
1 58805U 24012U   24184.91667824  .00050773  00000+0  11862-2 0  9998
2 58805  43.0041  24.8418 0018994 278.7059 229.0231 15.41229673 27217
STARLINK-31138          
1 58806U 24012V   24184.62780310 -.00002986  00000+0 -10436-3 0  9995
2 58806  42.9987  32.4638 0000969 262.0474  98.0267 15.25911618 27249
STARLINK-31163          
1 58807U 24012W   24184.84226808  .00004259  00000+0  17251-3 0  9992
2 58807  42.9994  31.5135 0001199 267.6451  92.4263 15.25918261 27281
STARLINK-31174          
1 58808U 24012X   24184.84000493  .00002862  00000+0  11921-3 0  9999
2 58808  43.0021  31.4974 0001153 280.0419  80.0301 15.25913752 27284
STARLINK-31169          
1 58809U 24012Y   24184.64137687 -.00001111  00000+0 -32623-4 0  9995
2 58809  43.0020  32.5832 0001088 256.1871 103.8859 15.25916910 27250
STARLINK-31233          
1 58826U 24017A   24184.32681315  .00008376  00000+0  31458-3 0  9998
2 58826  53.1561 192.3950 0001208  87.5365 272.5773 15.28035268 25826
STARLINK-31271          
1 58827U 24017B   24184.73831155 -.00001313  00000+0 -34724-4 0  9999
2 58827  53.1585 190.6941 0002074  84.0577 276.0659 15.28026135 25783
STARLINK-31222          
1 58828U 24017C   24184.73797196  .00001698  00000+0  73968-4 0  9993
2 58828  53.1580 190.6885 0001259  91.5038 268.6106 15.28019543 25773
STARLINK-31258          
1 58829U 24017D   24184.73364517  .00006528  00000+0  24837-3 0  9998
2 58829  53.1581 190.6609 0001382  90.1939 269.9219 15.27989530 25771
STARLINK-31253          
1 58830U 24017E   24184.60247380  .00001999  00000+0  84790-4 0  9996
2 58830  53.1572 191.2644 0001206 102.9644 257.1491 15.28023237 25741
STARLINK-31232          
1 58831U 24017F   24184.40191462  .00000854  00000+0  43511-4 0  9999
2 58831  53.1569 192.1439 0001431  88.4470 271.6694 15.28019523 25711
STARLINK-31263          
1 58832U 24017G   24184.72862947  .00005167  00000+0  19918-3 0  9993
2 58832  53.1583 190.6286 0001738 103.4689 256.6504 15.28001351 25893
STARLINK-31175          
1 58833U 24017H   24184.72547163  .00000075  00000+0  11861-4 0  9997
2 58833  53.1614 186.3677 0001132  91.6527 268.4607 15.39620083 25843
STARLINK-31171          
1 58834U 24017J   24184.39689606  .00001173  00000+0  55027-4 0  9992
2 58834  53.1565 192.1154 0001429  90.3153 269.8010 15.28018560 25712
STARLINK-31246          
1 58835U 24017K   24184.39257449  .00011083  00000+0  41217-3 0  9995
2 58835  53.1554 192.0867 0001112  89.8185 270.2942 15.28021088 25717
STARLINK-31251          
1 58836U 24017L   24184.32246544  .00004332  00000+0  16894-3 0  9995
2 58836  53.1565 192.3617 0001311  94.9247 265.1902 15.28028600 25810
STARLINK-31172          
1 58837U 24017M   24184.73717041  .00006306  00000+0  24030-3 0  9990
2 58837  53.1591 187.1236 0001630  91.3305 268.7882 15.27995696 25823
STARLINK-31249          
1 58838U 24017N   24184.71457257  .00005810  00000+0  22211-3 0  9997
2 58838  53.1550 190.5428 0001102  90.3606 269.7520 15.28041875 25784
STARLINK-31250          
1 58839U 24017P   24184.31779257  .00002388  00000+0  98861-4 0  9993
2 58839  53.1570 192.3328 0001210  94.3780 265.7358 15.28018721 25658
STARLINK-31248          
1 58840U 24017Q   24184.31310780  .00019713  00000+0  72286-3 0  9999
2 58840  53.1552 192.3025 0001114  89.7984 270.3143 15.28001040 25819
STARLINK-31236          
1 58841U 24017R   24184.70989876  .00011476  00000+0  42604-3 0  9990
2 58841  53.1545 190.5135 0000871  44.8840 315.2230 15.28043787 25793
STARLINK-31228          
1 58842U 24017S   24184.31277456  .00007964  00000+0  29973-3 0  9993
2 58842  53.1555 192.2996 0001364  93.1815 266.9341 15.28037535 25706
STARLINK-31280          
1 58843U 24017T   24184.43922513  .00015402  00000+0  56674-3 0  9992
2 58843  53.1560 191.6669 0001408  90.5291 269.5870 15.28066763 25724
STARLINK-31269          
1 58844U 24017U   24184.36552261  .00000447  00000+0  50567-4 0  9993
2 58844  53.1585 210.7758 0001253  82.9802 277.1330 15.04931970 25445
STARLINK-31264          
1 58845U 24017V   24184.79393953  .00010162  00000+0  72855-3 0  9990
2 58845  53.1577 208.4731 0000137  99.6536 260.4470 15.04904961 25520
STARLINK-31273          
1 58846U 24017W   24184.43892689  .00024984  00000+0  91160-3 0  9999
2 58846  53.1556 191.6656 0001443  82.3577 277.7586 15.28020778 25724
STARLINK-31262          
1 58847U 24017X   24184.39233420 -.00000007  00000+0  18889-4 0  9996
2 58847  53.1583 210.9332 0001162  97.0834 263.0288 15.04917514 25441
STARLINK-31238          
1 58853U 24019A   24184.22657796  .00001699  00000+0  74758-4 0  9997
2 58853  43.0014 118.0044 0001071 263.4945  96.5784 15.25913166 24737
STARLINK-31158          
1 58854U 24019B   24184.51379380 -.00001773  00000+0 -57981-4 0  9994
2 58854  43.0003 117.5604 0001030 283.6371  76.4365 15.25904081 25069
STARLINK-31237          
1 58855U 24019C   24184.50926632  .00001161  00000+0  54211-4 0  9994
2 58855  43.0029 117.5480 0001272 264.5688  95.5018 15.25913515 25066
STARLINK-31244          
1 58856U 24019D   24184.52962265 -.00001781  00000+0 -58274-4 0  9992
2 58856  43.0044 117.6762 0001571 268.1611  91.9061 15.25906013 25069
STARLINK-31216          
1 58857U 24019E   24184.54079726  .00000515  00000+0  29516-4 0  9995
2 58857  43.0045 116.8993 0001440 269.4699  90.5987 15.25908902 25053
STARLINK-31226          
1 58858U 24019F   24184.52057493  .00001041  00000+0  49646-4 0  9992
2 58858  43.0018 117.6095 0001783 276.3740  83.6908 15.25913367 25068
STARLINK-31197          
1 58859U 24019G   24184.21138680  .00002488  00000+0  10494-3 0  9991
2 58859  43.0031 119.6067 0001406 283.3313  76.7381 15.25903875 25017
STARLINK-31213          
1 58860U 24019H   24184.22495754  .00002158  00000+0  92326-4 0  9991
2 58860  43.0020 119.7153 0001275 270.3997  89.6707 15.25906849 25011
STARLINK-31199          
1 58861U 24019J   24184.52736631 -.00000231  00000+0  10053-5 0  9996
2 58861  43.0019 117.6588 0001295 271.0285  89.0417 15.25908069 25062
STARLINK-31200          
1 58862U 24019K   24184.51153217  .00016281  00000+0  63086-3 0  9992
2 58862  43.0012 117.5423 0001217 279.0171  81.0543 15.25911079 25066
STARLINK-31149          
1 58863U 24019L   24184.89310435 -.00001630  00000+0 -52487-4 0  9999
2 58863  43.0005 116.1229 0001678 264.6070  95.4589 15.25913900 25117
STARLINK-31242          
1 58864U 24019M   24184.53641625  .00002369  00000+0  10038-3 0  9992
2 58864  43.0050 117.7394 0001507 260.2128  99.8553 15.25906766 25060
STARLINK-31223          
1 58865U 24019N   24184.50700198  .00002820  00000+0  11757-3 0  9992
2 58865  42.9997 117.5223 0001695 260.2760  99.7899 15.25915423 25048
STARLINK-31219          
1 58866U 24019P   24184.81633400 -.00001081  00000+0 -31513-4 0  9991
2 58866  43.0020 116.4174 0001502 263.9298  96.1382 15.25899008 24861
STARLINK-31198          
1 58867U 24019Q   24184.85014109 -.00003532  00000+0 -12531-3 0  9996
2 58867  43.0013 115.7648 0000824 281.6247  78.4511 15.25891101 24851
STARLINK-31196          
1 58868U 24019R   24184.85238869  .00022361  00000+0  86191-3 0  9990
2 58868  43.0016 115.7981 0000543 288.4191  71.6601 15.25916034 24876
STARLINK-31203          
1 58869U 24019S   24184.08381143  .00003127  00000+0  12936-3 0  9995
2 58869  43.0010 115.1938 0000982 246.6348 113.4399 15.25900433 25050
STARLINK-31201          
1 58870U 24019T   24184.88858460 -.00001584  00000+0 -50740-4 0  9999
2 58870  43.0011 116.0975 0001286 276.8240  83.2465 15.25911850 24904
STARLINK-31214          
1 58871U 24019U   24184.81182644 -.00000054  00000+0  77899-5 0  9992
2 58871  43.0039 116.3819 0001477 279.8842  80.1842 15.25907170 24891
STARLINK-31215          
1 58872U 24019V   24184.54319757 -.00000058  00000+0  76085-5 0  9990
2 58872  43.0024 117.7989 0001299 275.4037  84.6665 15.25909774 25041
STARLINK-31177          
1 58873U 24019W   24184.50474498 -.00000111  00000+0  55834-5 0  9990
2 58873  42.9989 117.4960 0001079 277.6242  82.4487 15.25902548 25066
STARLINK-30945          
1 58874U 24019X   24184.51831510 -.00000619  00000+0 -13825-4 0  9991
2 58874  43.0017 117.5786 0001201 281.0432  79.0284 15.25905400 25062
STARLINK-31212          
1 58875U 24019Y   24184.88405845 -.00001422  00000+0 -44535-4 0  9995
2 58875  43.0006 116.0641 0001212 253.5418 106.5300 15.25915021 24957
STARLINK-31306          
1 58876U 24020A   24184.58297430 -.00000543  00000+0 -69367-5 0  9998
2 58876  53.1593 301.0846 0001455  86.6480 273.4687 15.27999961 25047
STARLINK-31326          
1 58877U 24020B   24184.60181486  .00001231  00000+0  57111-4 0  9991
2 58877  53.1581 299.7737 0001212 116.4560 243.6564 15.28017646 23895
STARLINK-31300          
1 58878U 24020C   24184.57828649 -.00000998  00000+0 -23374-4 0  9992
2 58878  53.1582 301.0573 0001380  74.5255 285.5898 15.28008614 23871
STARLINK-31296          
1 58879U 24020D   24184.63934432  .00011332  00000+0  42105-3 0  9992
2 58879  53.1596 300.7225 0001148 116.8048 243.3069 15.28028296 25040
